NORAD_CAT_ID,OBJECT_NAME,OBJECT_TYPE,EPOCH,MEAN_MOTION,ECCENTRICITY,INCLINATION,RA_OF_ASC_NODE,ARG_OF_PERICENTER,MEAN_ANOMALY,BSTAR,MEAN_MOTION_DOT,MEAN_MOTION_DDOT,TLE_LINE0,TLE_LINE1,TLE_LINE2,SEMIMAJOR_AXIS,PERIOD,APOGEE,PERIGEE,DECAYED
55639.0,STARLINK-5508,PAYLOAD,2024-02-05 21:40:19,14.9832975,0.0002761,70.0002,307.7013,271.0681,89.0162,-3.3007e-05,-4.87e-06,0.0,0 STARLINK-5508,1 55639U 23021M   24036.90299908 -.00000487  00000-0 -33007-4 0  9995,2 55639  70.0002 307.7013 0002761 271.0681  89.0162 14.98329750 54532,6950.194,96.107,573.978,570.14,0.0
55639.0,STARLINK-5508,PAYLOAD,2024-02-06 04:04:51,14.98330683,0.0002766,70.0002,307.0282,271.8714,88.2128,-2.0497e-05,-3.38e-06,0.0,0 STARLINK-5508,1 55639U 23021M   24037.17003808 -.00000338  00000-0 -20497-4 0  9991,2 55639  70.0002 307.0282 0002766 271.8714  88.2128 14.98330683 54577,6950.191,96.107,573.978,570.133,0.0
55639.0,STARLINK-5508,PAYLOAD,2024-02-06 20:06:11,14.98332751,0.0002726,70.0003,305.3452,273.2395,86.8452,-4.0993e-05,-5.82e-06,0.0,0 STARLINK-5508,1 55639U 23021M   24037.83763652 -.00000582  00000-0 -40993-4 0  9998,2 55639  70.0003 305.3452 0002726 273.2395  86.8452 14.98332751 54375,6950.184,96.107,573.944,570.155,0.0
55639.0,STARLINK-5508,PAYLOAD,2024-02-06 21:42:19,14.98332756,0.0002728,70.0003,305.1769,273.2114,86.8732,-3.9591e-05,-5.65e-06,0.0,0 STARLINK-5508,1 55639U 23021M   24037.90439637 -.00000565  00000-0 -39591-4 0  9992,2 55639  70.0003 305.1769 0002728 273.2114  86.8732 14.98332756 54685,6950.184,96.107,573.945,570.153,0.0
55639.0,STARLINK-5508,PAYLOAD,2024-02-07 10:31:24,14.98337627,0.0002681,70.0004,303.8282,281.5731,78.5127,-0.00020811,-2.576e-05,0.0,0 STARLINK-5508,1 55639U 23021M   24038.43847688 -.00002576  00000-0 -20811-3 0  9998,2 55639  70.0004 303.8282 0002681 281.5731  78.5127 14.98337627 54763,6950.169,96.107,573.898,570.171,0.0
55639.0,STARLINK-5508,PAYLOAD,2024-02-07 20:08:13,14.98321274,0.0002777,69.9999,302.8204,273.1365,86.9476,-5.5939e-05,-7.6e-06,0.0,0 STARLINK-5508,1 55639U 23021M   24038.83904376 -.00000760  00000-0 -55939-4 0  9993,2 55639  69.9999 302.8204 0002777 273.1365  86.9476 14.98321274 54527,6950.22,96.108,574.015,570.155,0.0
55639.0,STARLINK-5508,PAYLOAD,2024-02-07 21:44:21,14.98319128,0.0002889,70.0002,302.6527,270.6754,89.4074,-2.7897e-05,-4.26e-06,0.0,0 STARLINK-5508,1 55639U 23021M   24038.90580426 -.00000426  00000-0 -27897-4 0  9998,2 55639  70.0002 302.6527 0002889 270.6754  89.4074 14.98319128 54830,6950.227,96.108,574.099,570.084,0.0
55639.0,STARLINK-5508,PAYLOAD,2024-02-08 02:32:45,14.98321996,0.0002708,70.0001,302.1479,265.7322,94.3527,-3.2507e-05,-4.81e-06,0.0,0 STARLINK-5508,1 55639U 23021M   24039.10608348 -.00000481  00000-0 -32507-4 0  9990,2 55639  70.0001 302.1479 0002708 265.7322  94.3527 14.98321996 54863,6950.218,96.108,573.965,570.201,0.0
55639.0,STARLINK-5508,PAYLOAD,2024-02-08 20:10:13,14.98330698,0.0002796,69.9999,300.297,262.5124,97.5717,-2.4349e-06,-1.22e-06,0.0,0 STARLINK-5508,1 55639U 23021M   24039.84043825 -.00000122  00000-0 -24349-5 0  9992,2 55639  69.9999 300.2970 0002796 262.5124  97.5717 14.98330698 54677,6950.191,96.107,573.999,570.112,0.0
55639.0,STARLINK-5508,PAYLOAD,2024-02-08 21:46:21,14.9833164,0.0002865,69.9999,300.1288,262.9375,97.1458,-1.5883e-05,-2.82e-06,0.0,0 STARLINK-5508,1 55639U 23021M   24039.90719799 -.00000282  00000-0 -15883-4 0  9998,2 55639  69.9999 300.1288 0002865 262.9375  97.1458 14.98331640 54987,6950.188,96.107,574.044,570.062,0.0
55639.0,STARLINK-5508,PAYLOAD,2024-02-09 04:10:53,14.98336063,0.0002809,69.9998,299.4552,263.1306,96.9533,3.9815e-05,3.82e-06,0.0,0 STARLINK-5508,1 55639U 23021M   24040.17423314  .00000382  00000-0  39815-4 0  9994,2 55639  69.9998 299.4552 0002809 263.1306  96.9533 14.98336063 54722,6950.174,96.107,573.991,570.087,0.0
55639.0,STARLINK-5508,PAYLOAD,2024-02-09 20:12:15,14.98323918,0.0002729,70.0,297.7716,259.0917,100.9935,4.1145e-05,3.98e-06,0.0,0 STARLINK-5508,1 55639U 23021M   24040.84184136  .00000398  00000-0  41145-4 0  9990,2 55639  70.0000 297.7716 0002729 259.0917 100.9935 14.98323918 54823,6950.212,96.107,573.973,570.18,0.0
55639.0,STARLINK-5508,PAYLOAD,2024-02-10 02:36:47,14.98324662,0.0002724,70.0,297.0979,256.4987,103.5868,4.4539e-05,4.38e-06,0.0,0 STARLINK-5508,1 55639U 23021M   24041.10888145  .00000438  00000-0  44539-4 0  9996,2 55639  70.0000 297.0979 0002724 256.4987 103.5868 14.98324662 55169,6950.209,96.107,573.968,570.181,0.0
55639.0,STARLINK-5508,PAYLOAD,2024-02-10 20:14:15,14.98331506,0.0002701,69.9999,295.2458,257.3559,102.7298,-1.7903e-05,-3.07e-06,0.0,0 STARLINK-5508,1 55639U 23021M   24041.84323950 -.00000307  00000-0 -17903-4 0  9997,2 55639  69.9999 295.2458 0002701 257.3559 102.7298 14.98331506 54976,6950.188,96.107,573.93,570.176,0.0
55639.0,STARLINK-5508,PAYLOAD,2024-02-10 21:50:23,14.98331359,0.0002704,69.9999,295.0775,257.4948,102.5908,-1.8999e-05,-3.2e-06,0.0,0 STARLINK-5508,1 55639U 23021M   24041.90999957 -.00000320  00000-0 -18999-4 0  9991,2 55639  69.9999 295.0775 0002704 257.4948 102.5908 14.98331359 55289,6950.189,96.107,573.933,570.174,0.0
55639.0,STARLINK-5508,PAYLOAD,2024-02-11 02:38:47,14.98333347,0.0002676,69.9999,294.5726,255.9696,104.1166,6.5177e-06,-1.5e-07,0.0,0 STARLINK-5508,1 55639U 23021M   24042.11027720 -.00000015  00000-0  65177-5 0  9996,2 55639  69.9999 294.5726 0002676 255.9696 104.1166 14.98333347 55317,6950.183,96.107,573.907,570.188,0.0
55639.0,STARLINK-5508,PAYLOAD,2024-02-11 20:16:16,14.983316,0.0002738,69.9997,292.7214,263.2955,96.7893,4.8934e-05,4.91e-06,0.0,0 STARLINK-5508,1 55639U 23021M   24042.84463584  .00000491  00000-0  48934-4 0  9996,2 55639  69.9997 292.7214 0002738 263.2955  96.7893 14.98331600 55128,6950.188,96.107,573.956,570.15,0.0
55639.0,STARLINK-5508,PAYLOAD,2024-02-11 21:52:24,14.98331551,0.0002736,69.9996,292.5529,263.1194,96.9654,4.7687e-05,4.76e-06,0.0,0 STARLINK-5508,1 55639U 23021M   24042.91139578  .00000476  00000-0  47687-4 0  9994,2 55639  69.9996 292.5529 0002736 263.1194  96.9654 14.98331551 55432,6950.188,96.107,573.955,570.152,0.0
55639.0,STARLINK-5508,PAYLOAD,2024-02-12 02:40:48,14.98334465,0.0002691,69.9996,292.048,262.6253,97.46,7.9827e-05,8.6e-06,0.0,0 STARLINK-5508,1 55639U 23021M   24043.11167254  .00000860  00000-0  79827-4 0  9997,2 55639  69.9996 292.0480 0002691 262.6253  97.4600 14.98334465 55460,6950.179,96.107,573.914,570.174,0.0
55639.0,STARLINK-5508,PAYLOAD,2024-02-12 20:18:17,14.98328754,0.0002601,69.9998,290.1966,253.6341,106.4532,-3.6677e-05,-5.31e-06,0.0,0 STARLINK-5508,1 55639U 23021M   24043.84603844 -.00000531  00000-0 -36677-4 0  9990,2 55639  69.9998 290.1966 0002601 253.6341 106.4532 14.98328754 55277,6950.197,96.107,573.869,570.254,0.0
55639.0,STARLINK-5508,PAYLOAD,2024-02-13 09:07:22,14.98326402,0.000248,69.9999,288.8483,266.6211,93.4664,-8.7988e-05,-1.142e-05,0.0,0 STARLINK-5508,1 55639U 23021M   24044.38012263 -.00001142  00000-0 -87988-4 0  9999,2 55639  69.9999 288.8483 0002480 266.6211  93.4664 14.98326402 55652,6950.204,96.107,573.793,570.345,0.0
55639.0,STARLINK-5508,PAYLOAD,2024-02-13 21:56:26,14.98328792,0.0002755,69.9988,287.5016,260.5446,99.5402,-3.5371e-05,-5.15e-06,0.0,0 STARLINK-5508,1 55639U 23021M   24044.91419882 -.00000515  00000-0 -35371-4 0  9998,2 55639  69.9988 287.5016 0002755 260.5446  99.5402 14.98328792 55736,6950.197,96.107,573.976,570.147,0.0
55639.0,STARLINK-5508,PAYLOAD,2024-02-14 01:08:42,14.98331401,0.0002706,69.9988,287.1647,262.5592,97.526,-1.5593e-05,-2.79e-06,0.0,0 STARLINK-5508,1 55639U 23021M   24045.04771672 -.00000279  00000-0 -15593-4 0  9992,2 55639  69.9988 287.1647 0002706 262.5592  97.5260 14.98331401 55452,6950.189,96.107,573.934,570.173,0.0
55639.0,STARLINK-5508,PAYLOAD,2024-02-14 09:09:23,14.98331159,0.0002796,69.9984,286.3239,271.2845,88.7994,-5.2928e-05,-7.24e-06,0.0,0 STARLINK-5508,1 55639U 23021M   24045.38151785 -.00000724  00000-0 -52928-4 0  9994,2 55639  69.9984 286.3239 0002796 271.2845  88.7994 14.98331159 55808,6950.189,96.107,573.998,570.111,0.0
55639.0,STARLINK-5508,PAYLOAD,2024-02-14 17:10:03,14.98324838,0.0002943,69.9981,285.4824,267.0449,93.0373,-3.7602e-05,-5.42e-06,0.0,0 STARLINK-5508,1 55639U 23021M   24045.71532202 -.00000542  00000-0 -37602-4 0  9998,2 55639  69.9981 285.4824 0002943 267.0449  93.0373 14.98324838 55550,6950.209,96.107,574.119,570.028,0.0
55639.0,STARLINK-5508,PAYLOAD,2024-02-14 21:58:28,14.98324383,0.0002849,69.9983,284.9774,263.2039,96.8796,-1.2519e-05,-2.42e-06,0.0,0 STARLINK-5508,1 55639U 23021M   24045.91560204 -.00000242  00000-0 -12519-4 0  9990,2 55639  69.9983 284.9774 0002849 263.2039  96.8796 14.98324383 55889,6950.21,96.107,574.055,570.095,0.0
55639.0,STARLINK-5508,PAYLOAD,2024-02-15 01:10:44,14.98326796,0.0002855,69.9985,284.6409,266.2244,93.8588,2.3507e-06,-6.5e-07,0.0,0 STARLINK-5508,1 55639U 23021M   24046.04912062 -.00000065  00000-0  23507-5 0  9990,2 55639  69.9985 284.6409 0002855 266.2244  93.8588 14.98326796 55900,6950.203,96.107,574.052,570.084,0.0
55639.0,STARLINK-5508,PAYLOAD,2024-02-15 18:48:12,14.98327296,0.0002941,69.9985,282.7892,268.7199,91.3623,4.6855e-05,4.66e-06,0.0,0 STARLINK-5508,1 55639U 23021M   24046.78348001  .00000466  00000-0  46855-4 0  9991,2 55639  69.9985 282.7892 0002941 268.7199  91.3623 14.98327296 55715,6950.201,96.107,574.11,570.022,0.0
55639.0,STARLINK-5508,PAYLOAD,2024-02-15 22:00:28,14.98330473,0.0002959,69.9985,282.4525,270.1661,89.9159,4.9686e-05,5e-06,0.0,0 STARLINK-5508,1 55639U 23021M   24046.91699805  .00000500  00000-0  49686-4 0  9991,2 55639  69.9985 282.4525 0002959 270.1661  89.9159 14.98330473 56039,6950.191,96.107,574.113,570.0,0.0
55639.0,STARLINK-5508,PAYLOAD,2024-02-16 09:13:24,14.98344484,0.0002883,69.9984,281.274,271.1215,88.9614,-0.00023114,-2.851e-05,0.0,0 STARLINK-5508,1 55639U 23021M   24047.38431515 -.00002851  00000-0 -23114-3 0  9995,2 55639  69.9984 281.2740 0002883 271.1215  88.9614 14.98344484 55802,6950.148,96.106,574.017,570.009,0.0
